#aV2013  2 28  0  0  0.00000000     288 DD+AD WGS84 FIT  NGA
## 1729 345600.00000000   300.00000000 56351 0.0000000000000
+   31     1  2  3  4  5  6  7  8  9 10 11 12 13 14 15 16 17
+         18 19 20 21 22 23 24 25 26 28 29 30 31 32  0  0  0
+          0  0  0  0  0  0  0  0  0  0  0  0  0  0  0  0  0
+          0  0  0  0  0  0  0  0  0  0  0  0  0  0  0  0  0
+          0  0  0  0  0  0  0  0  0  0  0  0  0  0  0  0  0
++         2  2  2  2  2  2  2  2  2  2  2  2  2  2  2  2  2
++         2  2  2  2  2  2  2  2  2  2  2  2  2  2  2  0  0
++         0  0  0  0  0  0  0  0  0  0  0  0  0  0  0  0  0
++         0  0  0  0  0  0  0  0  0  0  0  0  0  0  0  0  0
++         0  0  0  0  0  0  0  0  0  0  0  0  0  0  0  0  0
%c cc cc ccc ccc cccc cccc cccc cccc ccccc ccccc ccccc ccccc
%c cc cc ccc ccc cccc cccc cccc cccc ccccc ccccc ccccc ccccc
%f  0.0000000  0.000000000  0.00000000000  0.000000000000000
%f  0.0000000  0.000000000  0.00000000000  0.000000000000000
%i    0    0    0    0      0      0      0      0         0
%i    0    0    0    0      0      0      0      0         0
/*      NGA, ST. LOUIS,MO.                                  
/*   EPHEMERIS COMPUTED FROM  1 DAYS OF DATA
/*   EPOCHA SMOOTHER  
/* CCCCCCCCCCCCCCCCCCCCCCCCCCCCCCCCCCCCCCCCCCCCCCCCCCCCCCCCC
*  2013  2 28 18 55  0.00000000                                                 
P  1 -14261.639510   6110.987229  21530.692345      3.873448                    
V  1  -4785.040609 -26975.984082   4554.243106      0.028666                    
P  2  13727.425042  18032.396189 -14066.975360    420.426132                    
V  2    907.563126  18159.002685  23336.405746      0.015514                    
P  3 -24486.507299  -9503.720328  -5195.999049    174.491593                    
V  3   6544.348934  -1915.648574 -30070.963280      0.050177                    
P  4   6879.915173  25266.272455  -3674.939592    148.010255                    
V  4  -2942.850564   4924.888383  30964.821684      0.110246                    
P  5  17066.448821   4481.762982 -19922.247279   -385.848071                    
V  5 -18791.310258  16875.499079 -12180.421918     -0.016685                    
P  6 -21126.215081 -13551.184538  -9112.860760    332.996965                    
V  6  11963.475157    701.198133 -28132.770911     -0.148773                    
P  7  -7228.054865  20621.822619 -14851.354867    185.915903                    
V  7  -4568.119681 -18557.658607 -23757.480245      0.043398                    
P  8  -1830.005411  25697.127068  -4886.826670      4.873106                    
V  8  -2396.066531  -6306.287676 -32163.722823      0.002348                    
P  9  13371.385895  15914.567181  15942.118534    223.790149                    
V  9   1884.028975  21230.363721 -22083.249725      0.025742                    
P 10   1642.847683  17340.869775 -20227.725627    -71.531835                    
V 10 -20670.748363  14520.148259  11340.446121     -0.013462                    
P 11 -17793.105216   -762.265159  19337.440155   -357.962938                    
V 11  -9809.699455 -23853.862734  -9469.003097     -0.036753                    
P 12  22808.863667  -9932.582072   8979.237871    120.354017                    
V 12  -7828.491453   8640.176726  29570.182033      0.020608                    
P 13 -14783.693663   8067.746200 -20706.908916    141.215631                    
V 13 -22858.741096 -12163.983871  11546.838556     -0.029360                    
P 14  -5481.486913 -17247.441834  19682.707455    220.744049                    
V 14  22622.592572   9427.275482  14568.566014      0.001814                    
P 15  25381.881584   2968.334647   7683.200654   -109.921865                    
V 15   8209.603965   6051.960368 -29104.176331     -0.013042                    
P 16 -15841.320627  -5439.016553 -20704.619611   -252.524565                    
V 16  20680.490490 -15967.870944 -11307.044168     -0.000950                    
P 17   7357.126671  17419.967573  18956.967823     45.033461                    
V 17 -22116.133142  -8142.355020  16012.592195     -0.038595                    
P 18  12954.689123 -20644.172548  10513.395887    241.675171                    
V 18  12308.467406  -5424.943473 -27164.720700      0.018640                    
P 19 -24959.286498  -7939.847917   5508.916338   -352.507118                    
V 19  -5263.289994  -5205.925657 -30491.592060     -0.032037                    
P 20 -22085.363938  12708.754849   7185.003831     86.104837                    
V 20   4503.191173  -9064.554974  29230.392153      0.016704                    
P 21   4464.052523 -23271.921651 -10884.203330   -283.356897                    
V 21   6053.744021  14110.699077 -26923.142121     -0.022356                    
P 22   2182.429000 -19350.131589  18189.881986    159.738859                    
V 22  19131.460103 -12755.433486 -16164.299497      0.011948                    
P 23 -21951.833386   2638.597415 -14934.387011    109.461115                    
V 23 -16894.346127  -8742.898883  22814.078591     -0.036770                    
P 24  15111.702941  -2026.989367  21744.200886     -1.867839                    
V 24   4570.990725  27243.320773   -602.365281     -0.006770                    
P 25  19595.008709 -17770.365464  -1769.346273     73.992255                    
V 25   3319.703852    554.712782  31952.382701      0.031493                    
P 26  22573.555648  13975.149849  -3900.929022    -84.160803                    
V 26  -4489.865841   -159.918187 -31446.882933      0.142601                    
P 28  -6851.591437  19323.171252  17363.400615    236.797611                    
V 28 -17701.086763  11278.095904 -20403.276141      0.033711                    
P 29  14247.648505  -9176.531507 -20384.457001    412.279597                    
V 29  23441.597463  11305.213560  11304.998767      0.036100                    
P 30  -7449.463146 -13913.176380 -21716.129466   -215.594920                    
V 30  19227.081977 -18589.731395   5381.272247      0.083279                    
P 31  -7892.798142 -24233.018608  -6755.970661    304.485214                    
V 31   1104.066337  -9100.008447  30816.332209      0.016700                    
P 32 -22404.529532   3503.835269  13539.906151   -539.412294                    
V 32  12645.762162 -11968.538492  24791.993261     -0.031341                    
EOF
